ONEWEB-0018             
1 45434U 20020L   24302.50085837 -.00000438  00000+0 -12722-2 0  9993
2 45434  87.8897 139.9358 0001653  83.0644 277.0672 13.11416133224437
ONEWEB-0083             
1 45435U 20020M   24302.49068924 -.00000185  00000+0 -55832-3 0  9999
2 45435  87.8895 139.9200 0001529  83.3088 276.8214 13.11416103224479
ONEWEB-0095             
1 45436U 20020N   24302.48235527  .00000278  00000+0  74986-3 0  9996
2 45436  87.8893 139.9533 0000726  80.4116 279.7094 13.11416927224477
ONEWEB-0092             
1 45437U 20020P   24302.52739813  .00000128  00000+0  32757-3 0  9993
2 45437  87.8898 139.9292 0001321  86.9895 273.1384 13.10869786224588
ONEWEB-0085             
1 45438U 20020Q   24302.48391741  .00000125  00000+0  31567-3 0  9998
2 45438  87.8897 139.9457 0001658  84.5384 275.5933 13.11415301224476
ONEWEB-0096             
1 45439U 20020R   24302.26349493 -.00000169  00000+0 -51335-3 0  9997
2 45439  87.8893 139.9585 0001806  88.9276 271.2058 13.11416336224434
ONEWEB-0037             
1 45440U 20020S   24302.24484149  .00000201  00000+0  53026-3 0  9999
2 45440  87.8892 139.9385 0001495  86.6574 273.4725 13.11414978224461
ONEWEB-0042             
1 45441U 20020T   24302.55838673  .00000143  00000+0  36820-3 0  9997
2 45441  87.8894 139.9128 0001587  84.5464 275.5845 13.11410801224474
